[{"OBJECT_NAME":"ONEWEB-0659","OBJECT_ID":"2022-166AN","EPOCH":"2026-01-05T15:32:01.968864","MEAN_MOTION":13.21824873,"ECCENTRICITY":0.00015462,"INCLINATION":87.9225,"RA_OF_ASC_NODE":276.4154,"ARG_OF_PERICENTER":73.8662,"MEAN_ANOMALY":286.2642,"EPHEMERIS_TYPE":0,"CLASSIFICATION_TYPE":"U","NORAD_CAT_ID":54678,"ELEMENT_SET_NO":999,"REV_AT_EPOCH":15005,"BSTAR":-0.00018012458,"MEAN_MOTION_DOT":-6.1e-7,"MEAN_MOTION_DDOT":0},{"OBJECT_NAME":"ONEWEB-0685","OBJECT_ID":"2022-166AP","EPOCH":"2026-01-05T06:27:28.159488","MEAN_MOTION":13.21836652,"ECCENTRICITY":0.0001879,"INCLINATION":87.9224,"RA_OF_ASC_NODE":276.487,"ARG_OF_PERICENTER":82.8526,"MEAN_ANOMALY":277.2822,"EPHEMERIS_TYPE":0,"CLASSIFICATION_TYPE":"U","NORAD_CAT_ID":54679,"ELEMENT_SET_NO":999,"REV_AT_EPOCH":14989,"BSTAR":9.2504e-5,"MEAN_MOTION_DOT":5.1e-7,"MEAN_MOTION_DDOT":0},{"OBJECT_NAME":"ONEWEB-0712","OBJECT_ID":"2022-166AQ","EPOCH":"2026-01-05T15:42:30.072672","MEAN_MOTION":13.16594153,"ECCENTRICITY":0.00018301,"INCLINATION":87.9041,"RA_OF_ASC_NODE":261.1336,"ARG_OF_PERICENTER":58.8627,"MEAN_ANOMALY":301.2683,"EPHEMERIS_TYPE":0,"CLASSIFICATION_TYPE":"U","NORAD_CAT_ID":54680,"ELEMENT_SET_NO":999,"REV_AT_EPOCH":15067,"BSTAR":-8.6569877e-5,"MEAN_MOTION_DOT":-2.0e-7,"MEAN_MOTION_DDOT":0},{"OBJECT_NAME":"ONEWEB-0714","OBJECT_ID":"2022-166AR","EPOCH":"2026-01-05T06:36:31.146336","MEAN_MOTION":13.21834652,"ECCENTRICITY":0.0001788,"INCLINATION":87.9223,"RA_OF_ASC_NODE":276.48,"ARG_OF_PERICENTER":79.7538,"MEAN_ANOMALY":280.3797,"EPHEMERIS_TYPE":0,"CLASSIFICATION_TYPE":"U","NORAD_CAT_ID":54681,"ELEMENT_SET_NO":999,"REV_AT_EPOCH":15001,"BSTAR":-0.0036186,"MEAN_MOTION_DOT":-1.481e-5,"MEAN_MOTION_DDOT":0},{"OBJECT_NAME":"ONEWEB-0532","OBJECT_ID":"2023-004A","EPOCH":"2026-01-05T14:32:28.820832","MEAN_MOTION":13.17649835,"ECCENTRICITY":0.0001964,"INCLINATION":87.9094,"RA_OF_ASC_NODE":38.1801,"ARG_OF_PERICENTER":106.2618,"MEAN_ANOMALY":253.873,"EPHEMERIS_TYPE":0,"CLASSIFICATION_TYPE":"U","NORAD_CAT_ID":55140,"ELEMENT_SET_NO":999,"REV_AT_EPOCH":14617,"BSTAR":-8.5877252e-5,"MEAN_MOTION_DOT":-2.0e-7,"MEAN_MOTION_DDOT":0},{"OBJECT_NAME":"ONEWEB-0533","OBJECT_ID":"2023-004B","EPOCH":"2026-01-05T11:05:45.724992","MEAN_MOTION":13.12445066,"ECCENTRICITY":0.00019346,"INCLINATION":87.8927,"RA_OF_ASC_NODE":22.9808,"ARG_OF_PERICENTER":90.1914,"MEAN_ANOMALY":269.9436,"EPHEMERIS_TYPE":0,"CLASSIFICATION_TYPE":"U","NORAD_CAT_ID":55141,"ELEMENT_SET_NO":999,"REV_AT_EPOCH":14671,"BSTAR":-0.00079458912,"MEAN_MOTION_DOT":-2.73e-6,"MEAN_MOTION_DDOT":0},{"OBJECT_NAME":"ONEWEB-0541","OBJECT_ID":"2023-004C","EPOCH":"2026-01-05T14:15:11.601792","MEAN_MOTION":13.1141457,"ECCENTRICITY":0.00016695,"INCLINATION":87.8835,"RA_OF_ASC_NODE":53.4213,"ARG_OF_PERICENTER":102.1703,"MEAN_ANOMALY":257.9612,"EPHEMERIS_TYPE":0,"CLASSIFICATION_TYPE":"U","NORAD_CAT_ID":55142,"ELEMENT_SET_NO":999,"REV_AT_EPOCH":14463,"BSTAR":0.00030714969,"MEAN_MOTION_DOT":1.22e-6,"MEAN_MOTION_DDOT":0},{"OBJECT_NAME":"ONEWEB-0543","OBJECT_ID":"2023-004D","EPOCH":"2026-01-05T11:37:49.371744","MEAN_MOTION":13.18684325,"ECCENTRICITY":0.00017613,"INCLINATION":87.9158,"RA_OF_ASC_NODE":7.7974,"ARG_OF_PERICENTER":79.1479,"MEAN_ANOMALY":280.9851,"EPHEMERIS_TYPE":0,"CLASSIFICATION_TYPE":"U","NORAD_CAT_ID":55143,"ELEMENT_SET_NO":999,"REV_AT_EPOCH":14825,"BSTAR":6.0176133e-5,"MEAN_MOTION_DOT":3.7e-7,"MEAN_MOTION_DDOT":0},{"OBJECT_NAME":"ONEWEB-0544","OBJECT_ID":"2023-004E","EPOCH":"2026-01-05T13:17:36.703392","MEAN_MOTION":13.18686438,"ECCENTRICITY":0.00015089,"INCLINATION":87.9163,"RA_OF_ASC_NODE":7.7754,"ARG_OF_PERICENTER":86.523,"MEAN_ANOMALY":273.6075,"EPHEMERIS_TYPE":0,"CLASSIFICATION_TYPE":"U","NORAD_CAT_ID":55144,"ELEMENT_SET_NO":999,"REV_AT_EPOCH":14826,"BSTAR":-0.00015719836,"MEAN_MOTION_DOT":-4.9e-7,"MEAN_MOTION_DDOT":0},{"OBJECT_NAME":"ONEWEB-0560","OBJECT_ID":"2023-004F","EPOCH":"2026-01-05T13:08:05.604576","MEAN_MOTION":13.18685827,"ECCENTRICITY":0.00015659,"INCLINATION":87.9167,"RA_OF_ASC_NODE":7.7648,"ARG_OF_PERICENTER":84.2578,"MEAN_ANOMALY":275.8733,"EPHEMERIS_TYPE":0,"CLASSIFICATION_TYPE":"U","NORAD_CAT_ID":55145,"ELEMENT_SET_NO":999,"REV_AT_EPOCH":14827,"BSTAR":8.9594115e-5,"MEAN_MOTION_DOT":4.8e-7,"MEAN_MOTION_DDOT":0},{"OBJECT_NAME":"ONEWEB-0565","OBJECT_ID":"2023-004G","EPOCH":"2026-01-05T11:09:19.498464","MEAN_MOTION":13.18685094,"ECCENTRICITY":0.00013479,"INCLINATION":87.9155,"RA_OF_ASC_NODE":7.8248,"ARG_OF_PERICENTER":100.3037,"MEAN_ANOMALY":259.8247,"EPHEMERIS_TYPE":0,"CLASSIFICATION_TYPE":"U","NORAD_CAT_ID":55146,"ELEMENT_SET_NO":999,"REV_AT_EPOCH":14825,"BSTAR":0.00028784536,"MEAN_MOTION_DOT":1.26e-6,"MEAN_MOTION_DDOT":0},{"OBJECT_NAME":"ONEWEB-0567","OBJECT_ID":"2023-004H","EPOCH":"2026-01-05T10:59:49.276608","MEAN_MOTION":13.18684784,"ECCENTRICITY":0.0001329,"INCLINATION":87.9166,"RA_OF_ASC_NODE":7.7949,"ARG_OF_PERICENTER":91.6131,"MEAN_ANOMALY":268.5154,"EPHEMERIS_TYPE":0,"CLASSIFICATION_TYPE":"U","NORAD_CAT_ID":55147,"ELEMENT_SET_NO":999,"REV_AT_EPOCH":14825,"BSTAR":-6.806375e-6,"MEAN_MOTION_DOT":1.0e-7,"MEAN_MOTION_DDOT":0},{"OBJECT_NAME":"ONEWEB-0569","OBJECT_ID":"2023-004J","EPOCH":"2026-01-05T10:40:59.625984","MEAN_MOTION":13.13469314,"ECCENTRICITY":9.705e-5,"INCLINATION":87.8998,"RA_OF_ASC_NODE":352.551,"ARG_OF_PERICENTER":61.0295,"MEAN_ANOMALY":299.0931,"EPHEMERIS_TYPE":0,"CLASSIFICATION_TYPE":"U","NORAD_CAT_ID":55148,"ELEMENT_SET_NO":999,"REV_AT_EPOCH":14881,"BSTAR":-0.00064547896,"MEAN_MOTION_DOT":-2.23e-6,"MEAN_MOTION_DDOT":0},{"OBJECT_NAME":"ONEWEB-0570","OBJECT_ID":"2023-004K","EPOCH":"2026-01-05T12:34:50.685600","MEAN_MOTION":13.18686164,"ECCENTRICITY":0.0001791,"INCLINATION":87.9163,"RA_OF_ASC_NODE":7.7813,"ARG_OF_PERICENTER":105.6577,"MEAN_ANOMALY":254.4753,"EPHEMERIS_TYPE":0,"CLASSIFICATION_TYPE":"U","NORAD_CAT_ID":55149,"ELEMENT_SET_NO":999,"REV_AT_EPOCH":14825,"BSTAR":4.2150475e-5,"MEAN_MOTION_DOT":3.0e-7,"MEAN_MOTION_DDOT":0},{"OBJECT_NAME":"ONEWEB-0571","OBJECT_ID":"2023-004L","EPOCH":"2026-01-05T12:25:21.166176","MEAN_MOTION":13.18685964,"ECCENTRICITY":5.769e-5,"INCLINATION":87.9161,"RA_OF_ASC_NODE":7.7817,"ARG_OF_PERICENTER":119.3051,"MEAN_ANOMALY":240.8139,"EPHEMERIS_TYPE":0,"CLASSIFICATION_TYPE":"U","NORAD_CAT_ID":55150,"ELEMENT_SET_NO":999,"REV_AT_EPOCH":14826,"BSTAR":3.227023e-5,"MEAN_MOTION_DOT":2.6e-7,"MEAN_MOTION_DDOT":0},{"OBJECT_NAME":"ONEWEB-0572","OBJECT_ID":"2023-004M","EPOCH":"2026-01-05T15:16:13.387584","MEAN_MOTION":13.17626471,"ECCENTRICITY":0.00017295,"INCLINATION":87.9088,"RA_OF_ASC_NODE":38.1826,"ARG_OF_PERICENTER":83.95,"MEAN_ANOMALY":276.1829,"EPHEMERIS_TYPE":0,"CLASSIFICATION_TYPE":"U","NORAD_CAT_ID":55151,"ELEMENT_SET_NO":999,"REV_AT_EPOCH":14607,"BSTAR":0.011640991,"MEAN_MOTION_DOT":4.533e-5,"MEAN_MOTION_DDOT":0},{"OBJECT_NAME":"ONEWEB-0573","OBJECT_ID":"2023-004N","EPOCH":"2026-01-05T12:15:50.335200","MEAN_MOTION":13.1868594,"ECCENTRICITY":0.00013175,"INCLINATION":87.9154,"RA_OF_ASC_NODE":7.7864,"ARG_OF_PERICENTER":116.3748,"MEAN_ANOMALY":243.7519,"EPHEMERIS_TYPE":0,"CLASSIFICATION_TYPE":"U","NORAD_CAT_ID":55152,"ELEMENT_SET_NO":999,"REV_AT_EPOCH":14825,"BSTAR":-1.4772275e-5,"MEAN_MOTION_DOT":7.0e-8,"MEAN_MOTION_DDOT":0}]
