ONEWEB-0659             
1 54678U 22166AN  26005.64724501 -.00000061  00000+0 -18012-3 0  9992
2 54678  87.9225 276.4154 0001546  73.8662 286.2642 13.21824873150052
ONEWEB-0685             
1 54679U 22166AP  26005.26907592  .00000051  00000+0  92504-4 0  9990
2 54679  87.9224 276.4870 0001879  82.8526 277.2822 13.21836652149893
ONEWEB-0712             
1 54680U 22166AQ  26005.65451473 -.00000020  00000+0 -86570-4 0  9991
2 54680  87.9041 261.1336 0001830  58.8627 301.2683 13.16594153150674
ONEWEB-0714             
1 54681U 22166AR  26005.27536049 -.00001481  00000+0 -36186-2 0  9991
2 54681  87.9223 276.4800 0001788  79.7538 280.3797 13.21834652150015
ONEWEB-0532             
1 55140U 23004A   26005.60588913 -.00000020  00000+0 -85877-4 0  9999
2 55140  87.9094  38.1801 0001964 106.2618 253.8730 13.17649835146173
ONEWEB-0533             
1 55141U 23004B   26005.46233478 -.00000273  00000+0 -79459-3 0  9995
2 55141  87.8927  22.9808 0001934  90.1914 269.9436 13.12445066146719
ONEWEB-0541             
1 55142U 23004C   26005.59388428  .00000122  00000+0  30715-3 0  9999
2 55142  87.8835  53.4213 0001669 102.1703 257.9612 13.11414570144639
ONEWEB-0543             
1 55143U 23004D   26005.48459921  .00000037  00000+0  60176-4 0  9995
2 55143  87.9158   7.7974 0001761  79.1479 280.9851 13.18684325148258
ONEWEB-0544             
1 55144U 23004E   26005.55389703 -.00000049  00000+0 -15720-3 0  9993
2 55144  87.9163   7.7754 0001508  86.5230 273.6075 13.18686438148262
ONEWEB-0560             
1 55145U 23004F   26005.54728709  .00000048  00000+0  89594-4 0  9994
2 55145  87.9167   7.7648 0001565  84.2578 275.8733 13.18685827148279
ONEWEB-0565             
1 55146U 23004G   26005.46480901  .00000126  00000+0  28785-3 0  9996
2 55146  87.9155   7.8248 0001347 100.3037 259.8247 13.18685094148258
ONEWEB-0567             
1 55147U 23004H   26005.45820922  .00000010  00000+0 -68064-5 0  9996
2 55147  87.9166   7.7949 0001329  91.6131 268.5154 13.18684784148254
ONEWEB-0569             
1 55148U 23004J   26005.44513456 -.00000223  00000+0 -64548-3 0  9995
2 55148  87.8998 352.5510 0000970  61.0295 299.0931 13.13469314148814
ONEWEB-0570             
1 55149U 23004K   26005.52419775  .00000030  00000+0  42150-4 0  9994
2 55149  87.9163   7.7813 0001791 105.6577 254.4753 13.18686164148259
ONEWEB-0571             
1 55150U 23004L   26005.51760609  .00000026  00000+0  32270-4 0  9997
2 55150  87.9161   7.7817 0000576 119.3051 240.8139 13.18685964148267
ONEWEB-0572             
1 55151U 23004M   26005.63626606  .00004533  00000+0  11641-1 0  9992
2 55151  87.9088  38.1826 0001729  83.9500 276.1829 13.17626471146072
ONEWEB-0573             
1 55152U 23004N   26005.51099925  .00000007  00000+0 -14772-4 0  9992
2 55152  87.9154   7.7864 0001317 116.3748 243.7519 13.18685940148254
